STARLINK-32725          
1 62505U 25003U   26068.01837789  .00027741  00000+0  10131-2 0  9991
2 62505  42.9993 292.3326 0001186 247.7470 112.3256 15.27605123 66453
HERMES-3                
1 63835U 25052BR  26068.93751242  .00020316  00000+0  69958-3 0  9995
2 63835  97.3987 324.6131 0007993 112.9583 247.2502 15.30039785 54863
